BEIDOU-2 IGSO-1 (C06)   
1 36828U 10036A   25132.53367819 -.00000034  00000+0  00000+0 0  9998
2 36828  54.2692 166.5826 0049316 217.1300 145.5043  1.00287974 54085
BEIDOU-2 G4 (C04)       
1 37210U 10057A   25133.53497359 -.00000096  00000+0  00000+0 0  9999
2 37210   2.6557  70.4558 0004463 200.6261 313.0299  1.00273171 53280
BEIDOU-2 IGSO-2 (C07)   
1 37256U 10068A   25133.32926921 -.00000203  00000+0  00000+0 0  9990
2 37256  48.2718 276.7748 0041602 210.9471 326.0977  1.00246955 52781
BEIDOU-2 IGSO-3 (C08)   
1 37384U 11013A   25133.45209975 -.00000199  00000+0  00000+0 0  9994
2 37384  61.8381  43.9406 0030106 179.4045 279.4454  1.00275504 51656
BEIDOU-2 IGSO-4 (C09)   
1 37763U 11038A   25132.89748733  .00000045  00000+0  00000+0 0  9998
2 37763  54.5718 169.2535 0142722 230.9492 247.8596  1.00285171 50636
BEIDOU-2 IGSO-5 (C10)   
1 37948U 11073A   25132.85322463 -.00000189  00000+0  00000+0 0  9996
2 37948  48.4102 276.4837 0103670 219.2046 136.1823  1.00256985 49384
BEIDOU-2 G5 (C05)       
1 38091U 12008A   25133.53436522  .00000074  00000+0  00000+0 0  9995
2 38091   2.5783  71.2598 0010180 268.3238 142.9788  1.00272045 48363
BEIDOU-2 M3 (C11)       
1 38250U 12018A   25132.08323298 -.00000074  00000+0  00000+0 0  9998
2 38250  56.0957 318.3587 0020450 270.4514  89.3150  1.86233815 88820
BEIDOU-2 M4 (C12)       
1 38251U 12018B   25133.08896025 -.00000069  00000+0  00000+0 0  9997
2 38251  55.9988 317.5714 0011374 274.1460  85.7217  1.86232218 88495
BEIDOU-2 M6 (C14)       
1 38775U 12050B   25133.33601790 -.00000036  00000+0  00000+0 0  9999
2 38775  56.1924  76.1525 0014492 343.3128  16.6039  1.86231141 85868
BEIDOU-2 G6 (C02)       
1 38953U 12059A   25133.53940428 -.00000159  00000+0  00000+0 0  9998
2 38953   3.4058  77.6438 0010463 315.2521 116.8879  1.00271679 46045
BEIDOU-3S IGSO-1S (C31) 
1 40549U 15019A   25131.86538543 -.00000180  00000+0  00000+0 0  9990
2 40549  49.9571 300.2819 0038502 191.1793 144.1093  1.00286564 37049
BEIDOU-3S M2S (C58)     
1 40748U 15037A   25132.21786552 -.00000074  00000+0  00000+0 0  9998
2 40748  55.2218 315.8140 0007913 259.5463 100.3607  1.86229335 66653
BEIDOU-3S M1S (C57)     
1 40749U 15037B   25133.01329937 -.00000070  00000+0  00000+0 0  9994
2 40749  55.2180 315.7790 0003868  25.1086 334.9052  1.86253939 66673
BEIDOU-3S IGSO-2S (C56) 
1 40938U 15053A   25133.32744473 -.00000152  00000+0  00000+0 0  9993
2 40938  49.8432 263.5279 0058312 187.5578 354.3148  1.00275765 35346
BEIDOU-2 IGSO-6 (C13)   
1 41434U 16021A   25132.70808440 -.00000165  00000+0  00000+0 0  9991
2 41434  59.6616  42.0365 0054412 230.1661 306.3329  1.00293873 33461
BEIDOU-2 G7 (C03)       
1 41586U 16037A   25133.60183591 -.00000337  00000+0  00000+0 0  9990
2 41586   1.6809  68.4824 0010043 340.1639 150.1586  1.00274399  2885
BEIDOU-3 M1 (C19)       
1 43001U 17069A   25133.10170834 -.00000037  00000+0  00000+0 0  9998
2 43001  56.3413  76.2997 0011810 313.2101  46.6551  1.86231513 51153
BEIDOU-3 M2 (C20)       
1 43002U 17069B   25131.96569376 -.00000043  00000+0  00000+0 0  9991
2 43002  56.3396  76.3729 0009912 334.7698  25.1433  1.86230947 51125
BEIDOU-3 M7 (C27)       
1 43107U 18003A   25132.24864519 -.00000075  00000+0  00000+0 0  9990
2 43107  54.6805 316.2590 0004979  77.8959 282.1569  1.86232662 49883
BEIDOU-3 M8 (C28)       
1 43108U 18003B   25133.26568253 -.00000070  00000+0  00000+0 0  9995
2 43108  54.6724 316.2077 0002386 269.5691  90.3987  1.86231116 49917
BEIDOU-3 M4 (C22)       
1 43207U 18018A   25133.16988900 -.00000036  00000+0  00000+0 0  9997
2 43207  56.3001  76.3752 0007539 357.2993   2.6603  1.86231420 49293
BEIDOU-3 M3 (C21)       
1 43208U 18018B   25133.23641865 -.00000036  00000+0  00000+0 0  9992
2 43208  56.2996  76.3771 0009690 325.0468  34.8536  1.86231367 49299
BEIDOU-3 M9 (C29)       
1 43245U 18029A   25132.91766399 -.00000071  00000+0  00000+0 0  9998
2 43245  54.5538 313.9111 0000561  86.0134 273.9850  1.86232966 48440
BEIDOU-3 M10 (C30)      
1 43246U 18029B   25132.84967406 -.00000071  00000+0  00000+0 0  9993
2 43246  54.5510 313.9406 0004384  28.2296 331.7864  1.86229258 48428
BEIDOU-2 IGSO-7 (C16)   
1 43539U 18057A   25133.27493119 -.00000044  00000+0  00000+0 0  9992
2 43539  55.1600 166.5224 0088856 236.3167  40.5747  1.00267833 25118
BEIDOU-3 M5 (C23)       
1 43581U 18062A   25132.53810834  .00000061  00000+0  00000+0 0  9998
2 43581  54.1000 195.9262 0004550 279.9501  80.0895  1.86228881 46176
BEIDOU-3 M6 (C24)       
1 43582U 18062B   25132.93929057  .00000062  00000+0  00000+0 0  9992
2 43582  54.0997 195.9019 0004397  14.0791 346.0252  1.86229644 46180
BEIDOU-3 M12 (C26)      
1 43602U 18067A   25133.41174191  .00000063  00000+0  00000+0 0  9996
2 43602  54.1929 194.5972 0007211  27.0377 333.0936  1.86227960 45671
BEIDOU-3 M11 (C25)      
1 43603U 18067B   25133.00873314  .00000063  00000+0  00000+0 0  9995
2 43603  54.1901 194.5754 0003969  12.2493 347.8534  1.86227435 45697
BEIDOU-3 M13 (C32)      
1 43622U 18072A   25131.89362373 -.00000044  00000+0  00000+0 0  9995
2 43622  56.2716  75.9390 0008396 314.1815  45.7114  1.86231454 45182
BEIDOU-3 M14 (C33)      
1 43623U 18072B   25133.36996993 -.00000036  00000+0  00000+0 0  9992
2 43623  56.2746  75.8836 0006562 338.8570  21.0807  1.86231472 45203
BEIDOU-3 M16 (C35)      
1 43647U 18078A   25132.99323988 -.00000071  00000+0  00000+0 0  9999
2 43647  54.4498 313.9795 0007685  30.9333 329.1039  1.86232436 44701
BEIDOU-3 M15 (C34)      
1 43648U 18078B   25133.12248684 -.00000070  00000+0  00000+0 0  9994
2 43648  54.4455 313.9767 0004781  44.3669 315.6633  1.86232431 44726
BEIDOU-3 G1 (C59)       
1 43683U 18085A   25133.55048111 -.00000262  00000+0  00000+0 0  9994
2 43683   3.0205  98.9425 0004908  10.6576 100.0410  1.00266126 24049
BEIDOU-3 M17 (C36)      
1 43706U 18093A   25133.27754853  .00000062  00000+0  00000+0 0  9992
2 43706  54.1834 195.8639 0009329 284.8057  75.1838  1.86228581 44095
BEIDOU-3 M18 (C37)      
1 43707U 18093B   25132.60328336  .00000061  00000+0  00000+0 0  9991
2 43707  54.1841 195.8785 0007264 313.9195  46.1118  1.86230045 44074
BEIDOU-3 IGSO-1 (C38)   
1 44204U 19023A   25133.46018564 -.00000228  00000+0  00000+0 0  9998
2 44204  58.1278  41.7806 0020727 225.1184 247.3581  1.00256531  3202
BEIDOU-2 G8 (C01)       
1 44231U 19027A   25133.55134991 -.00000230  00000+0  00000+0 0  9998
2 44231   1.6045  74.9621 0004895 260.3038 239.2991  1.00276072 22070
BEIDOU-3 IGSO-2 (C39)   
1 44337U 19035A   25133.47502593 -.00000047  00000+0  00000+0 0  9998
2 44337  55.2040 162.3717 0035788 209.8896 149.8630  1.00282212 21663
BEIDOU-3 M24 (C46)      
1 44542U 19061A   25133.21106040  .00000062  00000+0  00000+0 0  9990
2 44542  54.4110 196.2178 0007611 355.1709   4.9143  1.86229162 38341
BEIDOU-3 M23 (C45)      
1 44543U 19061B   25133.43414249  .00000062  00000+0  00000+0 0  9998
2 44543  54.4095 196.1789 0004891 335.6294  86.7426  1.86229429 38359
BEIDOU-3 IGSO-3 (C40)   
1 44709U 19073A   25132.82273587 -.00000205  00000+0  00000+0 0  9995
2 44709  55.4884 285.2124 0044230 182.2120 177.6710  1.00255956 20445
BEIDOU-3 M22 (C44)      
1 44793U 19078A   25133.05359287 -.00000071  00000+0  00000+0 0  9992
2 44793  54.2968 313.8690 0006728  38.8978 321.1424  1.86232291 37190
BEIDOU-3 M21 (C43)      
1 44794U 19078B   25131.03842825 -.00000079  00000+0  00000+0 0  9992
2 44794  54.2718 313.9085 0004725  36.7810 323.2469  1.86227919 37160
BEIDOU-3 M19 (C41)      
1 44864U 19090A   25132.63111090 -.00000040  00000+0  00000+0 0  9992
2 44864  56.2063  76.0677 0019190 290.7476 250.6801  1.86231810 36773
BEIDOU-3 M20 (C42)      
1 44865U 19090B   25133.44583287 -.00000035  00000+0  00000+0 0  9998
2 44865  56.2086  76.0747 0017015 303.3870 153.9338  1.86231708 36776
BEIDOU-3 G2 (C60)       
1 45344U 20017A   25133.53853547 -.00000126  00000+0  00000+0 0  9992
2 45344   2.8142  39.7049 0002624   1.1191 104.6305  1.00272700 19264
BEIDOU-3 G3 (C61)       
1 45807U 20040A   25133.60183591 -.00000338  00000+0  00000+0 0  9990
2 45807   1.4812  63.2158 0002476 315.7258 179.7690  1.00278453 18061
BEIDOU-3 G4 (C62)       
1 56564U 23066A   25133.53497359 -.00000095  00000+0  00000+0 0  9995
2 56564   1.3075 291.7469 0005955 176.4706 115.9276  1.00273103  7383
BEIDOU-3 M28 (C50)      
1 58654U 23207A   25133.26621736 -.00000038  00000+0  00000+0 0  9999
2 58654  55.3950  75.8333 0004222 316.7622  43.1693  1.86230027  9399
BEIDOU-3 M26 (C48)      
1 58655U 23207B   25133.06574890 -.00000039  00000+0  00000+0 0  9997
2 58655  55.3968  75.8261 0004551 296.6014  63.3161  1.86231733  9372
BEIDOU-3 M25 (C47)      
1 61186U 24168B   25132.11771413 -.00000075  00000+0  00000+0 0  9992
2 61186  54.8258 316.1432 0003373 305.4322 256.8054  1.86230393  4314
BEIDOU-3 M27 (C49)      
1 61187U 24168C   25132.57218163 -.00000073  00000+0  00000+0 0  9999
2 61187  54.8208 316.1121 0002270  31.5393 250.2730  1.86230486  1796
